STARLINK-31385          
1 58985U 24031W   24200.17570772 -.00000263  00000+0  31663-5 0  9994
2 58985  53.1596 199.2958 0001454 100.2771 259.8393 15.28013358 24776
STARLINK-31229          
1 58986U 24031X   24200.19047144 -.00000817  00000+0 -16827-4 0  9999
2 58986  53.1602 202.2569 0001580 126.4454 233.6691 15.28008339 24736
CE-SAT-IE               
1 58987U 24032A   24200.39790662  .00001252  00000+0  23262-3 0  9995
2 58987  98.0998 256.0533 0003853 123.5238 236.6334 14.66878613 22336
TIRSAT                  
1 58989U 24032C   24200.10796931  .00003648  00000+0  63591-3 0  9991
2 58989  98.0963 256.0479 0004980 200.8790 159.2212 14.68616882 22316
INSAT-3DS               
1 58990U 24033A   24199.82549302 -.00000139  00000+0  00000+0 0  9993
2 58990   0.0146 355.2712 0002689 113.4034 206.6964  1.00269440 40058
ADRAS-J                 
1 58992U 24034A   24200.45121426  .00006690  00000+0  61266-3 0  9993
2 58992  98.2125 174.8989 0043235 307.8178  51.9130 14.94590048 22534
MERAH PUTIH 2           
1 58995U 24035A   24200.09113032 -.00000342  00000+0  00000+0 0  9995
2 58995   0.0026 114.7484 0001329 355.2844 332.1061  1.00270386  1612
AAC-AIS-SAT3            
1 58997U 23174DJ  24200.47245074  .00007742  00000+0  11535-2 0  9992
2 58997  97.7190 268.3029 0008791  89.4666 270.7551 14.75106802 37772
STARLINK-31468          
1 58998U 24036A   24200.41679182 -.00002306  00000+0 -70600-4 0  9999
2 58998  53.1599 342.2826 0001644 144.6779 215.4330 15.28015055 23570
STARLINK-31440          
1 58999U 24036B   24200.42581896 -.00001159  00000+0 -29188-4 0  9995
2 58999  53.1608 342.3327 0001665  91.7728 268.3462 15.28010666 23305
STARLINK-31529          
1 59000U 24036C   24200.42147422  .00036914  00000+0  13381-2 0  9993
2 59000  53.1597 342.3056 0001707 111.1273 248.9909 15.28035068 23576
STARLINK-31431          
1 59002U 24036E   24199.66455760 -.00000710  00000+0 -12968-4 0  9994
2 59002  53.1593 345.4084 0001343  71.6886 288.4260 15.28013194 23457
STARLINK-31429          
1 59003U 24036F   24199.68326735  .00000402  00000+0  27176-4 0  9999
2 59003  53.1625 345.5170 0000898 102.6701 257.4399 15.28022594 23460
STARLINK-31435          
1 59004U 24036G   24200.54292340  .00004403  00000+0  17146-3 0  9992
2 59004  53.1617 341.6434 0001455  92.4365 267.6801 15.28032263 23605
STARLINK-31484          
1 59005U 24036H   24200.54259945  .00025306  00000+0  92301-3 0  9998
2 59005  53.1609 341.6405 0001551  95.8471 264.2706 15.28025387 23658
STARLINK-31450          
1 59006U 24036J   24200.53791832  .00021184  00000+0  77536-3 0  9997
2 59006  53.1609 341.6068 0001793 108.5083 251.6112 15.28016682 23595
STARLINK-31456          
1 59007U 24036K   24199.68793490 -.00013743  00000+0 -48475-3 0  9997
2 59007  53.1597 345.5497 0001312 117.1017 243.0116 15.27997129 23458
STARLINK-31460          
1 59008U 24036L   24199.72058471  .00003534  00000+0  14007-3 0  9995
2 59008  53.1607 345.0428 0001140  94.0821 266.0309 15.28051428 23469
STARLINK-31488          
1 59009U 24036M   24199.68293173 -.00000435  00000+0 -30356-5 0  9997
2 59009  53.1608 345.5124 0001419  76.3105 283.8053 15.28014912 23455
STARLINK-31528          
1 59010U 24036N   24200.13610491  .00008575  00000+0  32168-3 0  9990
2 59010  53.1607 343.3696 0001563  67.8831 292.2335 15.28041395 23549
STARLINK-31491          
1 59011U 24036P   24200.39807082  .00007051  00000+0  26688-3 0  9991
2 59011  53.1626 342.1561 0002762  93.8757 266.2559 15.28033985 23575
STARLINK-31465          
1 59012U 24036Q   24200.39332551  .00030187  00000+0  10937-2 0  9991
2 59012  53.1625 342.1237 0001872  84.5683 275.5531 15.28150331 23579
STARLINK-31389          
1 59013U 24036R   24200.13145119  .00007101  00000+0  26876-3 0  9996
2 59013  53.1603 343.3357 0001365  83.3748 276.7407 15.28023180 23585
STARLINK-31454          
1 59014U 24036S   24200.38872124 -.00002766  00000+0 -87266-4 0  9992
2 59014  53.1605 342.0981 0001996  82.4199 277.7028 15.28005445 23570
STARLINK-31521          
1 59015U 24036T   24199.66890161  .00001832  00000+0  78786-4 0  9990
2 59015  53.1620 345.4272 0001546  85.1166 275.0010 15.28021391 23450
STARLINK-31526          
1 59016U 24036U   24199.68576313 -.00000313  00000+0  21615-5 0  9997
2 59016  53.1615 331.2816 0001453  75.9567 284.1599 15.39611802 23650
STARLINK-31406          
1 59017U 24036V   24200.38370544  .00008809  00000+0  33037-3 0  9992
2 59017  53.1600 342.0688 0000930  71.9485 288.1616 15.28015353 23589
STARLINK-31527          
1 59018U 24036W   24200.37935807  .00000768  00000+0  40412-4 0  9993
2 59018  53.1599 342.0485 0001596  74.5066 285.6110 15.28020068 23585
STARLINK-31436          
1 59019U 24036X   24200.37902945  .00001760  00000+0  76213-4 0  9992
2 59019  53.1605 342.0418 0001856  82.3701 277.7509 15.28022249 23578
TJS-11                  
1 59020U 24037A   24199.93799775 -.00000345  00000+0  00000+0 0  9994
2 59020   5.2766 321.4374 0005274 197.4054 235.3061  1.00275163  1574
STARLINK-30996          
1 59023U 24038A   24200.09433873 -.00003313  00000+0 -11697-3 0  9999
2 59023  42.9997 167.5516 0001118 258.2397 101.8329 15.25886693 23157
STARLINK-31006          
1 59024U 24038B   24200.07505450  .00017663  00000+0  42894-3 0  9993
2 59024  42.9985 150.0691 0001731 267.5098  92.5560 15.40711308 23327
STARLINK-31178          
1 59025U 24038C   24200.28844148 -.00000983  00000+0 -27746-4 0  9996
2 59025  43.0020 166.4220 0001062 275.5068  84.5662 15.25897841 22897
STARLINK-31227          
1 59026U 24038D   24200.22072648 -.00003308  00000+0 -11673-3 0  9994
2 59026  43.0018 166.7710 0000588 287.5701  72.5086 15.25894334 23141
STARLINK-30863          
1 59027U 24038E   24200.21846825 -.00001213  00000+0 -36574-4 0  9991
2 59027  43.0043 166.7535 0000798 284.1741  75.9021 15.25898417 23046
STARLINK-31206          
1 59028U 24038F   24200.19519310 -.00000482  00000+0 -42834-5 0  9999
2 59028  43.0009 135.9826 0001068 265.3140  94.7595 15.40696574 23519
STARLINK-31224          
1 59029U 24038G   24200.21619564 -.00001021  00000+0 -29187-4 0  9990
2 59029  43.0031 166.7408 0001262 258.0597 102.0112 15.25903027 23148
STARLINK-31186          
1 59030U 24038H   24200.21393498  .00004886  00000+0  19657-3 0  9997
2 59030  43.0030 166.7201 0001221 271.4270  88.6441 15.25898256 23143
STARLINK-31211          
1 59031U 24038J   24200.21167355 -.00003004  00000+0 -10509-3 0  9999
2 59031  43.0005 166.7018 0001104 279.2862  80.7865 15.25899520 23042
STARLINK-30862          
1 59032U 24038K   24200.37411384  .00002494  00000+0  10514-3 0  9997
2 59032  43.0011 165.3646 0001249 281.1451  78.9259 15.25916277 23076
STARLINK-31210          
1 59033U 24038L   24200.04456814  .00000595  00000+0  32597-4 0  9995
2 59033  43.0010 167.1862 0001468 254.6077 105.4612 15.25905070 23188
STARLINK-31231          
1 59034U 24038M   24199.90912154  .00003676  00000+0  15026-3 0  9992
2 59034  42.9994 167.8814 0001102 231.1107 128.9646 15.25913732 22990
STARLINK-31207          
1 59035U 24038N   24200.10322953  .00000258  00000+0  19721-4 0  9990
2 59035  43.0014 166.7607 0001419 266.8953  93.1735 15.25909908 23194
STARLINK-31217          
1 59036U 24038P   24200.19574341 -.00008883  00000+0 -20561-3 0  9997
2 59036  42.9995 149.2767 0003469 237.0980 122.9543 15.40692958 23404
STARLINK-31208          
1 59037U 24038Q   24199.61335853  .00001794  00000+0  78399-4 0  9990
2 59037  43.0023 169.0667 0001230 262.9590  97.1121 15.25909902 23123
STARLINK-31235          
1 59038U 24038R   24199.64276762 -.00000788  00000+0 -20285-4 0  9992
2 59038  43.0019 169.3212 0001173 261.0563  99.0155 15.25901531 23065
STARLINK-31220          
1 59039U 24038S   24199.60897526 -.00001447  00000+0 -45500-4 0  9996
2 59039  42.9986 169.9249 0001563 265.5918  94.4754 15.25906950 23052
STARLINK-31225          
1 59040U 24038T   24200.20899305 -.00000257  00000+0  23394-7 0  9991
2 59040  43.0043 164.0584 0001047 254.8391 105.2344 15.25905014 23068
STARLINK-31240          
1 59041U 24038U   24200.19132259 -.00002289  00000+0 -77721-4 0  9996
2 59041  43.0009 166.5600 0001156 277.2606  82.8114 15.25893755 23160
STARLINK-31202          
1 59042U 24038V   24200.17308482  .00000014  00000+0  10390-4 0  9999
2 59042  43.0026 165.5744 0001171 256.6284 103.4436 15.25899429 23215
STARLINK-31234          
1 59043U 24038W   24200.18453216 -.00000793  00000+0 -20460-4 0  9992
2 59043  42.9999 166.5166 0001551 260.5162  99.5514 15.25912793 22988
STARLINK-31153          
1 59044U 24038X   24200.16191944 -.00000750  00000+0 -18859-4 0  9990
2 59044  43.0011 166.3310 0001127 259.5139 100.5585 15.25895655 23031
STARLINK-31241          
1 59045U 24038Y   24200.18227255  .00000269  00000+0  20145-4 0  9992
2 59045  43.0017 166.4971 0001262 256.3671 103.7040 15.25901167 23204
STARLINK-31205          
1 59046U 24038Z   24200.18000322  .00000224  00000+0  18412-4 0  9992
2 59046  43.0009 166.4814 0001443 261.2274  98.8414 15.25905937 23148
METEOR-M2 4             
1 59051U 24039A   24200.51160749  .00000122  00000+0  74429-4 0  9993
2 59051  98.5992 161.6366 0007880  41.2490 318.9282 14.22239835 19941
SITRO-AIS 29            
1 59052U 24039B   24200.51688284  .00033748  00000+0  11776-2 0  9997
2 59052  97.3921 162.2959 0020135 105.2576 255.0892 15.29338098 21388
SITRO-AIS 30            
1 59053U 24039C   24200.51761652  .00032554  00000+0  11387-2 0  9991
2 59053  97.3918 162.2906 0020237 105.8381 254.5092 15.29264564 21371
SITRO-AIS 31            
1 59054U 24039D   24200.50818337  .00033798  00000+0  11766-2 0  9996
2 59054  97.3919 162.3039 0020142 105.7479 254.5984 15.29413738 21394
SITRO-AIS 33            
1 59055U 24039E   24200.49743961  .00032914  00000+0  11413-2 0  9993
2 59055  97.3925 162.3239 0019894 106.4172 253.9257 15.29552750 21387
SITRO-AIS 35            
1 59056U 24039F   24200.49345024  .00032671  00000+0  11323-2 0  9992
2 59056  97.3923 162.3262 0019694 106.5115 253.8291 15.29574780 21382
